0 PICOSAT 9
1 26930U 01043B   13282.74683140  .00000052  00000-0  51879-4 0  4241
2 26930 067.0011 291.1451 0010995 283.8582 126.5903 14.30309420628031
0 PICOSAT 9
1 26930U 01043B   13283.79695133  .00000043  00000-0  48413-4 0  4253
2 26930 067.0011 288.4306 0011016 283.6059 133.2001 14.30310078628182
0 PICOSAT 9
1 26930U 01043B   13286.17731176  .00000044  00000-0  49084-4 0  4274
2 26930 067.0012 282.2773 0011051 282.7916 148.8924 14.30310657628521
0 PICOSAT 9
1 26930U 01043B   13287.43686698  .00000072  00000-0  59614-4 0  4284
2 26930 067.0013 279.0213 0011055 282.4593 153.8327 14.30310925628708
0 PICOSAT 9
1 26930U 01043B   13288.76183987  .00000090  00000-0  66734-4 0  4296
2 26930 067.0015 275.5962 0011074 281.9174 135.7751 14.30311723628899
0 PICOSAT 9
1 26930U 01043B   13290.10268801  .00000052  00000-0  52159-4 0  4302
2 26930 067.0017 272.1301 0011082 281.6771 199.1478 14.30312351629080
0 PICOSAT 9
1 26930U 01043B   13291.14268581  .00000074  00000-0  60524-4 0  4312
2 26930 067.0018 269.4416 0011110 281.3402 153.7438 14.30312510629233
0 PICOSAT 9
1 26930U 01043B   13292.33043176  .00000134  00000-0  83438-4 0  4322
2 26930 067.0020 266.3714 0011127 280.9095 149.0935 14.30312517629400
0 PICOSAT 9
1 26930U 01043B   13293.39729116  .00000162  00000-0  94283-4 0  4336
2 26930 067.0020 263.6138 0011133 280.5374 242.0199 14.30312837629550
0 PICOSAT 9
1 26930U 01043B   13294.44242176  .00000138  00000-0  85039-4 0  4342
2 26930 067.0020 260.9124 0011143 280.1774 223.0658 14.30313497629705
0 PICOSAT 9
1 26930U 01043B   13295.88924488  .00000102  00000-0  71097-4 0  4355
2 26930 067.0020 257.1726 0011135 279.8512 112.1276 14.30314465629910
